[{"OBJECT_NAME":"STARLINK-34676","OBJECT_ID":"2025-152M","EPOCH":"2026-03-09T14:49:40.007424","MEAN_MOTION":15.05655301,"ECCENTRICITY":0.0001979,"INCLINATION":97.6019,"RA_OF_ASC_NODE":285.3895,"ARG_OF_PERICENTER":80.3489,"MEAN_ANOMALY":279.7962,"EPHEMERIS_TYPE":0,"CLASSIFICATION_TYPE":"U","NORAD_CAT_ID":64853,"ELEMENT_SET_NO":999,"REV_AT_EPOCH":3540,"BSTAR":0.00029449,"MEAN_MOTION_DOT":4.192e-5,"MEAN_MOTION_DDOT":0},{"OBJECT_NAME":"CZ-6A DEB","OBJECT_ID":"2024-140FD","EPOCH":"2026-03-09T14:27:44.906112","MEAN_MOTION":14.99694865,"ECCENTRICITY":0.0039811,"INCLINATION":89.0027,"RA_OF_ASC_NODE":280.8171,"ARG_OF_PERICENTER":188.2594,"MEAN_ANOMALY":171.7991,"EPHEMERIS_TYPE":0,"CLASSIFICATION_TYPE":"U","NORAD_CAT_ID":60778,"ELEMENT_SET_NO":999,"REV_AT_EPOCH":8450,"BSTAR":0.0048584,"MEAN_MOTION_DOT":0.00061368,"MEAN_MOTION_DDOT":0}]
